start=new Date('2022-07-19T00:00:00.000Z').valueOf();
sats=[{"INCLINATION":"53.0557","ARG_OF_PERICENTER":"67.0833","FILE":"3517041","OBJECT_ID":"2021-017AU","MEAN_ELEMENT_THEORY":"SGP4","ELEMENT_SET_NO":"999","APOAPSIS":"548.156","MEAN_MOTION":"15.06409656","COUNTRY_CODE":"US","TLE_LINE1":"1 47764U 21017AU  22199.86227464 -.00002115  00000-0 -12313-3 0  9995","OBJECT_NAME":"STARLINK-2182","OBJECT_TYPE":"PAYLOAD","TLE_LINE2":"2 47764  53.0557  76.4551 0001403  67.0833 293.0304 15.06409656 76453","LAUNCH_DATE":"2021-03-04","ECCENTRICITY":"0.00014030","SEMIMAJOR_AXIS":"6925.319","CENTER_NAME":"EARTH","MEAN_MOTION_DDOT":"0.0000000000000","EPOCH":"2022-07-18T20:41:40.528896","TIME_SYSTEM":"UTC","MEAN_MOTION_DOT":"-0.00002115","PERIAPSIS":"546.212","PERIOD":"95.592","RA_OF_ASC_NODE":"76.4551","EPHEMERIS_TYPE":"0","SITE":"AFETR","DECAY_DATE":null,"REV_AT_EPOCH":"7645","REF_FRAME":"TEME","RCS_SIZE":"LARGE","NORAD_CAT_ID":"47764","MEAN_ANOMALY":"293.0304","CLASSIFICATION_TYPE":"U","GP_ID":"208382199","BSTAR":"-0.00012313000000"},{"TLE_LINE1":"1 47766U 21017AW  22199.87975994  .00005393  00000-0  38061-3 0  9993","OBJECT_NAME":"STARLINK-2184","OBJECT_TYPE":"PAYLOAD","TLE_LINE2":"2 47766  53.0540  76.3584 0001607  63.5206 296.5947 15.06405058 77075","APOAPSIS":"548.311","ELEMENT_SET_NO":"999","ARG_OF_PERICENTER":"63.5206","FILE":"3517175","MEAN_ELEMENT_THEORY":"SGP4","OBJECT_ID":"2021-017AW","INCLINATION":"53.0540","COUNTRY_CODE":"US","MEAN_MOTION":"15.06405058","REF_FRAME":"TEME","RCS_SIZE":"LARGE","REV_AT_EPOCH":"7707","DECAY_DATE":null,"BSTAR":"0.00038061000000","GP_ID":"208405482","CLASSIFICATION_TYPE":"U","MEAN_ANOMALY":"296.5947","NORAD_CAT_ID":"47766","EPOCH":"2022-07-18T21:06:51.258816","TIME_SYSTEM":"UTC","MEAN_MOTION_DOT":"0.00005393","MEAN_MOTION_DDOT":"0.0000000000000","CENTER_NAME":"EARTH","SEMIMAJOR_AXIS":"6925.333","LAUNCH_DATE":"2021-03-04","ECCENTRICITY":"0.00016070","EPHEMERIS_TYPE":"0","SITE":"AFETR","PERIOD":"95.592","RA_OF_ASC_NODE":"76.3584","PERIAPSIS":"546.085"},{"TLE_LINE1":"1 47767U 21017AX  22199.83970713 -.00000020  00000-0  17577-4 0  9997","OBJECT_NAME":"STARLINK-2185","OBJECT_TYPE":"PAYLOAD","TLE_LINE2":"2 47767  53.0548  61.5517 0001257  71.1359 288.9766 15.06396049 77344","ARG_OF_PERICENTER":"71.1359","FILE":"3517175","OBJECT_ID":"2021-017AX","MEAN_ELEMENT_THEORY":"SGP4","INCLINATION":"53.0548","APOAPSIS":"548.096","ELEMENT_SET_NO":"999","MEAN_MOTION":"15.06396049","COUNTRY_CODE":"US","RCS_SIZE":"LARGE","REF_FRAME":"TEME","DECAY_DATE":null,"REV_AT_EPOCH":"7734","MEAN_ANOMALY":"288.9766","NORAD_CAT_ID":"47767","BSTAR":"0.00001757700000","CLASSIFICATION_TYPE":"U","GP_ID":"208405732","CENTER_NAME":"EARTH","LAUNCH_DATE":"2021-03-04","SEMIMAJOR_AXIS":"6925.361","ECCENTRICITY":"0.00012570","TIME_SYSTEM":"UTC","EPOCH":"2022-07-18T20:09:10.696032","MEAN_MOTION_DOT":"-0.00000020","MEAN_MOTION_DDOT":"0.0000000000000","PERIOD":"95.592","RA_OF_ASC_NODE":"61.5517","PERIAPSIS":"546.355","EPHEMERIS_TYPE":"0","SITE":"AFETR"},{"TLE_LINE1":"1 47768U 21017AY  22199.88075088  .00003126  00000-0  22864-3 0  9997","OBJECT_TYPE":"PAYLOAD","OBJECT_NAME":"STARLINK-2189","TLE_LINE2":"2 47768  53.0549  76.7609 0001466  69.1898 290.9247 15.06403041 77105","INCLINATION":"53.0549","FILE":"3517175","ARG_OF_PERICENTER":"69.1898","OBJECT_ID":"2021-017AY","MEAN_ELEMENT_THEORY":"SGP4","ELEMENT_SET_NO":"999","APOAPSIS":"548.219","MEAN_MOTION":"15.06403041","COUNTRY_CODE":"US","DECAY_DATE":null,"REV_AT_EPOCH":"7710","REF_FRAME":"TEME","RCS_SIZE":"LARGE","NORAD_CAT_ID":"47768","MEAN_ANOMALY":"290.9247","CLASSIFICATION_TYPE":"U","GP_ID":"208406982","BSTAR":"0.00022864000000","LAUNCH_DATE":"2021-03-04","ECCENTRICITY":"0.00014660","SEMIMAJOR_AXIS":"6925.339","CENTER_NAME":"EARTH","MEAN_MOTION_DDOT":"0.0000000000000","TIME_SYSTEM":"UTC","EPOCH":"2022-07-18T21:08:16.876032","MEAN_MOTION_DOT":"0.00003126","PERIAPSIS":"546.189","PERIOD":"95.592","RA_OF_ASC_NODE":"76.7609","EPHEMERIS_TYPE":"0","SITE":"AFETR"},{"DECAY_DATE":null,"REV_AT_EPOCH":"7761","REF_FRAME":"TEME","RCS_SIZE":"LARGE","CLASSIFICATION_TYPE":"U","GP_ID":"208407220","BSTAR":"-0.00005015400000","NORAD_CAT_ID":"47769","MEAN_ANOMALY":"291.2867","MEAN_MOTION_DDOT":"0.0000000000000","TIME_SYSTEM":"UTC","EPOCH":"2022-07-18T19:45:17.400384","MEAN_MOTION_DOT":"-0.00001028","LAUNCH_DATE":"2021-03-04","ECCENTRICITY":"0.00014250","SEMIMAJOR_AXIS":"6925.351","CENTER_NAME":"EARTH","EPHEMERIS_TYPE":"0","SITE":"AFETR","PERIAPSIS":"546.229","PERIOD":"95.592","RA_OF_ASC_NODE":"41.6307","TLE_LINE1":"1 47769U 21017AZ  22199.82311806 -.00001028  00000-0 -50154-4 0  9998","OBJECT_TYPE":"PAYLOAD","OBJECT_NAME":"STARLINK-2192","TLE_LINE2":"2 47769  53.0556  41.6307 0001425  68.8275 291.2867 15.06399167 77611","ELEMENT_SET_NO":"999","APOAPSIS":"548.203","INCLINATION":"53.0556","FILE":"3517175","ARG_OF_PERICENTER":"68.8275","OBJECT_ID":"2021-017AZ","MEAN_ELEMENT_THEORY":"SGP4","COUNTRY_CODE":"US","MEAN_MOTION":"15.06399167"},{"OBJECT_ID":"2021-017BA","MEAN_ELEMENT_THEORY":"SGP4","ARG_OF_PERICENTER":"67.9830","FILE":"3517175","INCLINATION":"53.0545","APOAPSIS":"548.249","ELEMENT_SET_NO":"999","MEAN_MOTION":"15.06405331","COUNTRY_CODE":"US","OBJECT_NAME":"STARLINK-2193","OBJECT_TYPE":"PAYLOAD","TLE_LINE1":"1 47770U 21017BA  22199.89729973  .00000475  00000-0  50791-4 0  9995","TLE_LINE2":"2 47770  53.0545  56.2831 0001519  67.9830 292.1320 15.06405331 77396","CENTER_NAME":"EARTH","SEMIMAJOR_AXIS":"6925.332","LAUNCH_DATE":"2021-03-04","ECCENTRICITY":"0.00015190","MEAN_MOTION_DOT":"0.00000475","EPOCH":"2022-07-18T21:32:06.696672","TIME_SYSTEM":"UTC","MEAN_MOTION_DDOT":"0.0000000000000","RA_OF_ASC_NODE":"56.2831","PERIOD":"95.592","PERIAPSIS":"546.145","SITE":"AFETR","EPHEMERIS_TYPE":"0","RCS_SIZE":"LARGE","REF_FRAME":"TEME","REV_AT_EPOCH":"7739","DECAY_DATE":null,"MEAN_ANOMALY":"292.1320","NORAD_CAT_ID":"47770","BSTAR":"0.00005079100000","GP_ID":"208405982","CLASSIFICATION_TYPE":"U"},{"NORAD_CAT_ID":"47771","MEAN_ANOMALY":"281.1737","CLASSIFICATION_TYPE":"U","GP_ID":"208406231","BSTAR":"0.00002606400000","DECAY_DATE":null,"REV_AT_EPOCH":"7739","REF_FRAME":"TEME","RCS_SIZE":"LARGE","PERIAPSIS":"546.241","RA_OF_ASC_NODE":"56.5466","PERIOD":"95.592","SITE":"AFETR","EPHEMERIS_TYPE":"0","LAUNCH_DATE":"2021-03-04","ECCENTRICITY":"0.00014150","SEMIMAJOR_AXIS":"6925.356","CENTER_NAME":"EARTH","MEAN_MOTION_DDOT":"0.0000000000000","MEAN_MOTION_DOT":"0.00000107","EPOCH":"2022-07-18T20:12:29.723616","TIME_SYSTEM":"UTC","TLE_LINE2":"2 47771  53.0558  56.5466 0001415  78.9411 281.1737 15.06397609 77398","OBJECT_TYPE":"PAYLOAD","OBJECT_NAME":"STARLINK-2194","TLE_LINE1":"1 47771U 21017BB  22199.84201069  .00000107  00000-0  26064-4 0  9990","MEAN_MOTION":"15.06397609","COUNTRY_CODE":"US","INCLINATION":"53.0558","OBJECT_ID":"2021-017BB","MEAN_ELEMENT_THEORY":"SGP4","ARG_OF_PERICENTER":"78.9411","FILE":"3517175","ELEMENT_SET_NO":"999","APOAPSIS":"548.201"},{"MEAN_ANOMALY":"282.2402","NORAD_CAT_ID":"47772","BSTAR":"0.00018060000000","GP_ID":"208406483","CLASSIFICATION_TYPE":"U","RCS_SIZE":"LARGE","REF_FRAME":"TEME","REV_AT_EPOCH":"7716","DECAY_DATE":null,"PERIOD":"95.592","RA_OF_ASC_NODE":"71.2946","PERIAPSIS":"546.179","EPHEMERIS_TYPE":"0","SITE":"AFETR","CENTER_NAME":"EARTH","LAUNCH_DATE":"2021-03-04","ECCENTRICITY":"0.00015120","SEMIMAJOR_AXIS":"6925.361","TIME_SYSTEM":"UTC","EPOCH":"2022-07-18T21:32:46.273920","MEAN_MOTION_DOT":"0.00002409","MEAN_MOTION_DDOT":"0.0000000000000","TLE_LINE2":"2 47772  53.0559  71.2946 0001512  77.8756 282.2402 15.06395902 77165","TLE_LINE1":"1 47772U 21017BC  22199.89775780  .00002409  00000-0  18060-3 0  9995","OBJECT_NAME":"STARLINK-2195","OBJECT_TYPE":"PAYLOAD","MEAN_MOTION":"15.06395902","COUNTRY_CODE":"US","FILE":"3517175","ARG_OF_PERICENTER":"77.8756","MEAN_ELEMENT_THEORY":"SGP4","OBJECT_ID":"2021-017BC","INCLINATION":"53.0559","APOAPSIS":"548.273","ELEMENT_SET_NO":"999"},{"TLE_LINE2":"2 47773  53.0546  71.3089 0001570  64.3491 295.7660 15.06403999 77152","OBJECT_NAME":"STARLINK-2196","OBJECT_TYPE":"PAYLOAD","TLE_LINE1":"1 47773U 21017BD  22199.89406447  .00000177  00000-0  30811-4 0  9996","COUNTRY_CODE":"US","MEAN_MOTION":"15.06403999","APOAPSIS":"548.289","ELEMENT_SET_NO":"999","MEAN_ELEMENT_THEORY":"SGP4","OBJECT_ID":"2021-017BD","ARG_OF_PERICENTER":"64.3491","FILE":"3517175","INCLINATION":"53.0546","BSTAR":"0.00003081100000","CLASSIFICATION_TYPE":"U","GP_ID":"208406721","MEAN_ANOMALY":"295.7660","NORAD_CAT_ID":"47773","REF_FRAME":"TEME","RCS_SIZE":"LARGE","REV_AT_EPOCH":"7715","DECAY_DATE":null,"SITE":"AFETR","EPHEMERIS_TYPE":"0","RA_OF_ASC_NODE":"71.3089","PERIOD":"95.592","PERIAPSIS":"546.114","MEAN_MOTION_DOT":"0.00000177","TIME_SYSTEM":"UTC","EPOCH":"2022-07-18T21:27:27.170208","MEAN_MOTION_DDOT":"0.0000000000000","CENTER_NAME":"EARTH","ECCENTRICITY":"0.00015700","LAUNCH_DATE":"2021-03-04","SEMIMAJOR_AXIS":"6925.336"},{"GP_ID":"208405483","CLASSIFICATION_TYPE":"U","BSTAR":"-0.00005165600000","NORAD_CAT_ID":"47774","MEAN_ANOMALY":"292.8382","DECAY_DATE":null,"REV_AT_EPOCH":"7716","RCS_SIZE":"LARGE","REF_FRAME":"TEME","SITE":"AFETR","EPHEMERIS_TYPE":"0","PERIAPSIS":"546.186","RA_OF_ASC_NODE":"71.3358","PERIOD":"95.593","MEAN_MOTION_DDOT":"0.0000000000000","MEAN_MOTION_DOT":"-0.00001051","TIME_SYSTEM":"UTC","EPOCH":"2022-07-18T21:22:09.455808","LAUNCH_DATE":"2021-03-04","ECCENTRICITY":"0.00015400","SEMIMAJOR_AXIS":"6925.388","CENTER_NAME":"EARTH","TLE_LINE2":"2 47774  53.0555  71.3358 0001540  67.2770 292.8382 15.06387277 77161","OBJECT_TYPE":"PAYLOAD","OBJECT_NAME":"STARLINK-2197","TLE_LINE1":"1 47774U 21017BE  22199.89038722 -.00001051  00000-0 -51656-4 0  9998","COUNTRY_CODE":"US","MEAN_MOTION":"15.06387277","ELEMENT_SET_NO":"999","APOAPSIS":"548.319","INCLINATION":"53.0555","MEAN_ELEMENT_THEORY":"SGP4","OBJECT_ID":"2021-017BE","ARG_OF_PERICENTER":"67.2770","FILE":"3517175"}];
